FENGYUN 1C DEB          
1 41002U 99025EXG 17341.48985016  .00001074  00000-0  85794-3 0  9997
2 41002  98.1785 225.5341 0149081  10.7370 349.6915 13.87732234342859
